[
    {
        "Altitude(m)": 555783.4344127298,
        "Argument of Periapsis(deg)": 0.006622991110713501,
        "Eccentricity": 0.0,
        "Inclination(deg)": 53.0,
        "Latitude(deg)": 34.24807351939563,
        "Longitude(deg)": -40.093717365518565,
        "Mean Anomaly(deg)": 44.637092867577586,
        "RAAN(deg)": 29.990143368528013,
        "Satellite Name": "Starlink Shell 1 134",
        "Satellite Number": 134,
        "Semi-Major Axis(m)": 6931778.249405717,
        "Time(s)": 190
    },
    {
        "Altitude(m)": 555864.6143020575,
        "Argument of Periapsis(deg)": 0.0069715695902247375,
        "Eccentricity": 0.0,
        "Inclination(deg)": 53.0,
        "Latitude(deg)": 34.678994518095315,
        "Longitude(deg)": -39.5820248317296,
        "Mean Anomaly(deg)": 45.2639240711343,
        "RAAN(deg)": 29.98962459845054,
        "Satellite Name": "Starlink Shell 1 134",
        "Satellite Number": 134,
        "Semi-Major Axis(m)": 6931778.249405717,
        "Time(s)": 200
    },
    {
        "Altitude(m)": 555946.274870573,
        "Argument of Periapsis(deg)": 0.007320148069735974,
        "Eccentricity": 0.0,
        "Inclination(deg)": 53.0,
        "Latitude(deg)": 35.10735035290394,
        "Longitude(deg)": -39.06459643125208,
        "Mean Anomaly(deg)": 45.890755274691024,
        "RAAN(deg)": 29.98910582837307,
        "Satellite Name": "Starlink Shell 1 134",
        "Satellite Number": 134,
        "Semi-Major Axis(m)": 6931778.249405717,
        "Time(s)": 210
    },
    {
        "Altitude(m)": 556028.3603963315,
        "Argument of Periapsis(deg)": 0.007668726549247212,
        "Eccentricity": 0.0,
        "Inclination(deg)": 53.0,
        "Latitude(deg)": 35.53307393259289,
        "Longitude(deg)": -38.54131481811412,
        "Mean Anomaly(deg)": 46.51758647824773,
        "RAAN(deg)": 29.988587058295597,
        "Satellite Name": "Starlink Shell 1 134",
        "Satellite Number": 134,
        "Semi-Major Axis(m)": 6931778.249405717,
        "Time(s)": 220
    },
    {
        "Altitude(m)": 556110.8151495189,
        "Argument of Periapsis(deg)": 0.00801730502875845,
        "Eccentricity": 0.0,
        "Inclination(deg)": 53.0,
        "Latitude(deg)": 35.95609662075697,
        "Longitude(deg)": -38.01206189665884,
        "Mean Anomaly(deg)": 47.14441768180444,
        "RAAN(deg)": 29.988068288218123,
        "Satellite Name": "Starlink Shell 1 134",
        "Satellite Number": 134,
        "Semi-Major Axis(m)": 6931778.249405717,
        "Time(s)": 230
    },
    {
        "Altitude(m)": 556193.5834212141,
        "Argument of Periapsis(deg)": 0.008365883508269684,
        "Eccentricity": 0.0,
        "Inclination(deg)": 53.0,
        "Latitude(deg)": 36.37634820444601,
        "Longitude(deg)": -37.476718410699306,
        "Mean Anomaly(deg)": 47.77124888536116,
        "RAAN(deg)": 29.987549518140654,
        "Satellite Name": "Starlink Shell 1 134",
        "Satellite Number": 134,
        "Semi-Major Axis(m)": 6931778.249405717,
        "Time(s)": 240
    },
    {
        "Altitude(m)": 556276.6095520883,
        "Argument of Periapsis(deg)": 0.008714461987780921,
        "Eccentricity": 0.0,
        "Inclination(deg)": 53.0,
        "Latitude(deg)": 36.793756863465426,
        "Longitude(deg)": -36.93516505521304,
        "Mean Anomaly(deg)": 48.398080088917865,
        "RAAN(deg)": 29.98703074806318,
        "Satellite Name": "Starlink Shell 1 134",
        "Satellite Number": 134,
        "Semi-Major Axis(m)": 6931778.249405717,
        "Time(s)": 250
    },
    {
        "Altitude(m)": 556359.8379610502,
        "Argument of Periapsis(deg)": 0.009063040467292158,
        "Eccentricity": 0.0,
        "Inclination(deg)": 53.0,
        "Latitude(deg)": 37.2082491404937,
        "Longitude(deg)": -36.38728208540313,
        "Mean Anomaly(deg)": 49.024911292474606,
        "RAAN(deg)": 29.986511977985707,
        "Satellite Name": "Starlink Shell 1 134",
        "Satellite Number": 134,
        "Semi-Major Axis(m)": 6931778.249405717,
        "Time(s)": 260
    },
    {
        "Altitude(m)": 556443.2131737953,
        "Argument of Periapsis(deg)": 0.009411618946803396,
        "Eccentricity": 0.0,
        "Inclination(deg)": 53.0,
        "Latitude(deg)": 37.61974991217128,
        "Longitude(deg)": -35.83294893658122,
        "Mean Anomaly(deg)": 49.65174249603131,
        "RAAN(deg)": 29.985993207908237,
        "Satellite Name": "Starlink Shell 1 134",
        "Satellite Number": 134,
        "Semi-Major Axis(m)": 6931778.249405717,
        "Time(s)": 270
    },
    {
        "Altitude(m)": 556526.679851248,
        "Argument of Periapsis(deg)": 0.009760197426314633,
        "Eccentricity": 0.0,
        "Inclination(deg)": 53.0,
        "Latitude(deg)": 38.0281823613286,
        "Longitude(deg)": -35.27204536834154,
        "Mean Anomaly(deg)": 50.27857369958802,
        "RAAN(deg)": 29.985474437830757,
        "Satellite Name": "Starlink Shell 1 134",
        "Satellite Number": 134,
        "Semi-Major Axis(m)": 6931778.249405717,
        "Time(s)": 280
    },
    {
        "Altitude(m)": 556610.1828179124,
        "Argument of Periapsis(deg)": 0.01010877590582587,
        "Eccentricity": 0.0,
        "Inclination(deg)": 53.0,
        "Latitude(deg)": 38.433467950539594,
        "Longitude(deg)": -34.70445110788778,
        "Mean Anomaly(deg)": 50.90540490314473,
        "RAAN(deg)": 29.984955667753287,
        "Satellite Name": "Starlink Shell 1 134",
        "Satellite Number": 134,
        "Semi-Major Axis(m)": 6931778.249405717,
        "Time(s)": 290
    },
    {
        "Altitude(m)": 556693.6670900898,
        "Argument of Periapsis(deg)": 0.010457354385337106,
        "Eccentricity": 0.0,
        "Inclination(deg)": 53.0,
        "Latitude(deg)": 38.83552639719545,
        "Longitude(deg)": -34.130045505997735,
        "Mean Anomaly(deg)": 51.53223610670144,
        "RAAN(deg)": 29.98443689767581,
        "Satellite Name": "Starlink Shell 1 134",
        "Satellite Number": 134,
        "Semi-Major Axis(m)": 6931778.249405717,
        "Time(s)": 300
    },
    {
        "Altitude(m)": 556777.0779039408,
        "Argument of Periapsis(deg)": 0.010805932864848343,
        "Eccentricity": 0.0,
        "Inclination(deg)": 53.0,
        "Latitude(deg)": 39.234275650307346,
        "Longitude(deg)": -33.548708719113236,
        "Mean Anomaly(deg)": 52.15906731025817,
        "RAAN(deg)": 29.98391812759834,
        "Satellite Name": "Starlink Shell 1 134",
        "Satellite Number": 134,
        "Semi-Major Axis(m)": 6931778.249405717,
        "Time(s)": 310
    },
    {
        "Altitude(m)": 556860.360743428,
        "Argument of Periapsis(deg)": 0.01115451134435958,
        "Eccentricity": 0.0,
        "Inclination(deg)": 53.0,
        "Latitude(deg)": 39.62963186926827,
        "Longitude(deg)": -32.96032139242684,
        "Mean Anomaly(deg)": 52.785898513814885,
        "RAAN(deg)": 29.98339935752087,
        "Satellite Name": "Starlink Shell 1 134",
        "Satellite Number": 134,
        "Semi-Major Axis(m)": 6931778.249405717,
        "Time(s)": 320
    },
    {
        "Altitude(m)": 556943.4613680468,
        "Argument of Periapsis(deg)": 0.011503089823870818,
        "Eccentricity": 0.0,
        "Inclination(deg)": 53.0,
        "Latitude(deg)": 40.02150940481304,
        "Longitude(deg)": -32.36476435744613,
        "Mean Anomaly(deg)": 53.412729717371604,
        "RAAN(deg)": 29.982880587443393,
        "Satellite Name": "Starlink Shell 1 134",
        "Satellite Number": 134,
        "Semi-Major Axis(m)": 6931778.249405717,
        "Time(s)": 330
    },
    {
        "Altitude(m)": 557026.3258404442,
        "Argument of Periapsis(deg)": 0.011851668303382053,
        "Eccentricity": 0.0,
        "Inclination(deg)": 53.0,
        "Latitude(deg)": 40.40982078243092,
        "Longitude(deg)": -31.761919857505028,
        "Mean Anomaly(deg)": 54.03956092092831,
        "RAAN(deg)": 29.982361817365923,
        "Satellite Name": "Starlink Shell 1 134",
        "Satellite Number": 134,
        "Semi-Major Axis(m)": 6931778.249405717,
        "Time(s)": 340
    },
    {
        "Altitude(m)": 557108.900553761,
        "Argument of Periapsis(deg)": 0.012200246782893292,
        "Eccentricity": 0.0,
        "Inclination(deg)": 53.0,
        "Latitude(deg)": 40.794476688508226,
        "Longitude(deg)": -31.151671276059492,
        "Mean Anomaly(deg)": 54.666392124485014,
        "RAAN(deg)": 29.981843047288454,
        "Satellite Name": "Starlink Shell 1 134",
        "Satellite Number": 134,
        "Semi-Major Axis(m)": 6931778.249405717,
        "Time(s)": 350
    },
    {
        "Altitude(m)": 557191.1322588584,
        "Argument of Periapsis(deg)": 0.012548825262404526,
        "Eccentricity": 0.0,
        "Inclination(deg)": 53.0,
        "Latitude(deg)": 41.17538595948707,
        "Longitude(deg)": -30.533902881195527,
        "Mean Anomaly(deg)": 55.29322332804175,
        "RAAN(deg)": 29.981324277210977,
        "Satellite Name": "Starlink Shell 1 134",
        "Satellite Number": 134,
        "Semi-Major Axis(m)": 6931778.249405717,
        "Time(s)": 360
    },
    {
        "Altitude(m)": 557272.9680912389,
        "Argument of Periapsis(deg)": 0.012897403741915765,
        "Eccentricity": 0.0,
        "Inclination(deg)": 53.0,
        "Latitude(deg)": 41.55245557434335,
        "Longitude(deg)": -29.908501099746143,
        "Mean Anomaly(deg)": 55.92005453159845,
        "RAAN(deg)": 29.980805507133507,
        "Satellite Name": "Starlink Shell 1 134",
        "Satellite Number": 134,
        "Semi-Major Axis(m)": 6931778.249405717,
        "Time(s)": 370
    }
]